RAPIDEYE 5              
1 33313U 08040B   17346.39608068  .00000075  00000-0  16724-4 0  9992
2 33313  97.8165  60.7315 0017239  13.0041 347.1609 14.79850588501678
